     2              NAVIGATION DATA                         RINEX VERSION / TYPE
CCRINEXN V1.6.0 UX  CDDIS               01-MAR-08 02:51     PGM / RUN BY / DATE 
IGS BROADCAST EPHEMERIS FILE                                COMMENT             
    0.9313E-08  0.0000E+00 -0.5960E-07  0.0000E+00          ION ALPHA           
    0.9011E+05  0.0000E+00 -0.1966E+06  0.0000E+00          ION BETA            
   -0.931322574616E-09-0.710542735760E-14    61440     1469 DELTA-UTC: A0,A1,T,W
    14                                                      LEAP SECONDS        
                                                            END OF HEADER       
 1 08  2 29  8  0  0.0 0.188954640180E-03 0.261479726760E-11 0.000000000000E+00
    0.850000000000E+02-0.267187500000E+02 0.391730602866E-08 0.427046835803E+00
   -0.152550637722E-05 0.703548081219E-02 0.451318919659E-05 0.515361041641E+04
    0.460800000000E+06-0.949949026108E-07-0.266767630708E+01 0.298023223877E-07
    0.991430501540E+00 0.307031250000E+03-0.178024057465E+01-0.804212070089E-08
    0.285726187357E-10 0.100000000000E+01 0.146800000000E+04 0.000000000000E+00
    0.280000000000E+01 0.000000000000E+00-0.372529029846E-08 0.850000000000E+02
    0.458820000000E+06 0.000000000000E+00 0.000000000000E+00 0.000000000000E+00
 2 08  2 29  8  0  0.0 0.178227666766E-03 0.306954461848E-11 0.000000000000E+00
    0.100000000000E+03 0.412500000000E+02 0.487698903484E-08 0.114526912787E+01
    0.207684934139E-05 0.881085882429E-02 0.763311982155E-05 0.515369484901E+04
    0.460800000000E+06 0.260770320892E-06 0.145693095683E+01 0.111758708954E-07
    0.943788751493E+00 0.221906250000E+03 0.247193370461E+01-0.814998202259E-08
   -0.245010206568E-09 0.100000000000E+01 0.146800000000E+04 0.000000000000E+00
    0.280000000000E+01 0.000000000000E+00-0.172294676304E-07 0.100000000000E+03
    0.453618000000E+06 0.400000000000E+01 0.000000000000E+00 0.000000000000E+00
 3 08  2 29  8  0  0.0 0.193836633116E-03 0.534328137292E-11 0.000000000000E+00
    0.220000000000E+02-0.518750000000E+01 0.552594446348E-08 0.609205291549E+00
   -0.186264514923E-08 0.103992853546E-01 0.744871795178E-05 0.515366683006E+04
    0.460800000000E+06-0.931322574615E-07 0.314049025997E+00 0.130385160446E-06
    0.926253343495E+00 0.216468750000E+03 0.808020435992E+00-0.849571102332E-08
   -0.223223583873E-09 0.100000000000E+01 0.146800000000E+04 0.000000000000E+00
    0.200000000000E+01 0.000000000000E+00-0.419095158577E-08 0.220000000000E+02
    0.453618000000E+06 0.400000000000E+01 0.000000000000E+00 0.000000000000E+00
 4 08  2 29  8  0  0.0-0.173817388713E-04-0.693489710102E-11 0.000000000000E+00
    0.180000000000E+02 0.457500000000E+02 0.478591344333E-08-0.251253404373E+01
    0.233203172684E-05 0.812676583882E-02 0.813230872154E-05 0.515372460556E+04
    0.460800000000E+06-0.298023223877E-07 0.147590253199E+01-0.447034835815E-07
    0.943113319290E+00 0.215125000000E+03 0.365546179608E+00-0.802211985729E-08
   -0.155720769612E-09 0.100000000000E+01 0.146800000000E+04 0.000000000000E+00
    0.200000000000E+01 0.000000000000E+00-0.605359673500E-08 0.180000000000E+02
    0.453618000000E+06 0.400000000000E+01 0.000000000000E+00 0.000000000000E+00
 5 08  2 29  8  0  0.0 0.706057529897E-03 0.130739863380E-10 0.000000000000E+00
    0.130000000000E+02-0.345937500000E+02 0.506556814410E-08-0.300650847612E+01
   -0.171922147274E-05 0.853071245365E-02 0.744313001633E-05 0.515363917351E+04
    0.460800000000E+06 0.122934579849E-06-0.719113447630E+00-0.100582838059E-06
    0.941943815764E+00 0.222937500000E+03 0.121782096713E+01-0.807855078978E-08
    0.223937899341E-09 0.100000000000E+01 0.146800000000E+04 0.000000000000E+00
    0.200000000000E+01 0.000000000000E+00-0.419095158577E-08 0.130000000000E+02
    0.453600000000E+06 0.000000000000E+00 0.000000000000E+00 0.000000000000E+00
 6 08  2 29  8  0  0.0 0.435188412666E-04 0.167119651451E-10 0.000000000000E+00
    0.150000000000E+02 0.187500000000E+00 0.517521536736E-08-0.196823024380E+01
   -0.149011611938E-07 0.529050547630E-02 0.746175646782E-05 0.515504423141E+04
    0.460800000000E+06 0.104308128357E-06 0.377837412502E+00 0.521540641785E-07
    0.933804857863E+00 0.217875000000E+03-0.173620391264E+01-0.810676592522E-08
   -0.151792037273E-09 0.100000000000E+01 0.146800000000E+04 0.000000000000E+00
    0.200000000000E+01 0.000000000000E+00-0.465661287308E-08 0.150000000000E+02
    0.456612000000E+06 0.400000000000E+01 0.000000000000E+00 0.000000000000E+00
 8 08  2 29  8  0  0.0-0.142955221236E-03-0.159161572810E-11 0.000000000000E+00
    0.220000000000E+02-0.631562500000E+02 0.412017175932E-08-0.149529499306E+01
   -0.352784991264E-05 0.100639249431E-01 0.678189098835E-05 0.515363847160E+04
    0.460800000000E+06 0.558793544769E-08-0.162526186261E+01-0.150874257088E-06
    0.981934551070E+00 0.262406250000E+03 0.287050443039E+01-0.787675702440E-08
    0.287154827694E-09 0.100000000000E+01 0.146800000000E+04 0.000000000000E+00
    0.200000000000E+01 0.000000000000E+00-0.419095158577E-08 0.220000000000E+02
    0.453618000000E+06 0.400000000000E+01 0.000000000000E+00 0.000000000000E+00
 9 08  2 29  8  0  0.0 0.112840905786E-03 0.193267624127E-11 0.000000000000E+00
    0.700000000000E+02-0.517187500000E+02 0.432339437244E-08-0.183690509724E+01
   -0.246800482273E-05 0.195258185267E-01 0.658258795738E-05 0.515367708969E+04
    0.460800000000E+06 0.366941094399E-06-0.171356353936E+01 0.206753611565E-06
    0.969809000963E+00 0.252000000000E+03 0.138920940535E+01-0.772103589785E-08
    0.191436545529E-09 0.100000000000E+01 0.146800000000E+04 0.000000000000E+00
    0.200000000000E+01 0.000000000000E+00-0.558793544769E-08 0.700000000000E+02
    0.453600000000E+06 0.000000000000E+00 0.000000000000E+00 0.000000000000E+00
10 08  2 29  8  0  0.0-0.254004262388E-03-0.386535248253E-11 0.000000000000E+00
    0.100000000000E+03 0.556562500000E+02 0.432017976948E-08 0.181166865294E+01
    0.290758907795E-05 0.804236228578E-02 0.574998557568E-05 0.515359033394E+04
    0.460800000000E+06-0.128522515297E-06 0.253796015536E+01 0.558793544769E-07
    0.964978740975E+00 0.272312500000E+03 0.529169195575E+00-0.807533595548E-08
   -0.678599676451E-10 0.100000000000E+01 0.146800000000E+04 0.000000000000E+00
    0.400000000000E+01 0.000000000000E+00-0.232830643654E-08 0.100000000000E+03
    0.453618000000E+06 0.400000000000E+01 0.000000000000E+00 0.000000000000E+00
11 08  2 29  8  0  0.0 0.269534066319E-04 0.000000000000E+00 0.000000000000E+00
    0.340000000000E+02 0.402187500000E+02 0.601596487480E-08-0.109330510151E+01
    0.205449759960E-05 0.790493458044E-02 0.772438943386E-05 0.515374507141E+04
    0.460800000000E+06 0.216066837311E-06 0.127963247294E+01-0.316649675369E-07
    0.891548220448E+00 0.192843750000E+03 0.588418941645E+00-0.867571852136E-08
   -0.329656588663E-09 0.100000000000E+01 0.146800000000E+04 0.000000000000E+00
    0.200000000000E+01 0.000000000000E+00-0.116415321827E-07 0.340000000000E+02
    0.459630000000E+06 0.000000000000E+00 0.000000000000E+00 0.000000000000E+00
12 08  2 29  8  0  0.0-0.357372686267E-03-0.682121026330E-12 0.000000000000E+00
    0.360000000000E+02-0.306875000000E+02 0.466769442821E-08-0.552651304122E+00
   -0.144541263580E-05 0.335955107585E-02 0.773184001446E-05 0.515365858269E+04
    0.460800000000E+06-0.335276126862E-07-0.627781179549E+00-0.316649675369E-07
    0.963413722917E+00 0.232718750000E+03-0.104848683163E+01-0.802819154926E-08
    0.208222959036E-09 0.100000000000E+01 0.146800000000E+04 0.000000000000E+00
    0.200000000000E+01 0.000000000000E+00-0.116415321827E-07 0.360000000000E+02
    0.453600000000E+06 0.000000000000E+00 0.000000000000E+00 0.000000000000E+00
13 08  2 29  8  0  0.0 0.242804642767E-03 0.216004991671E-11 0.000000000000E+00
    0.600000000000E+02-0.151562500000E+02 0.370372570361E-08 0.157754454699E+01
   -0.767409801483E-06 0.350523553789E-02 0.444613397121E-05 0.515367701340E+04
    0.460800000000E+06-0.242143869400E-07-0.267961147596E+01-0.335276126862E-07
    0.995585155238E+00 0.311406250000E+03 0.138894751522E+01-0.782282585210E-08
    0.985755346381E-10 0.100000000000E+01 0.146800000000E+04 0.000000000000E+00
    0.200000000000E+01 0.000000000000E+00-0.111758708954E-07 0.600000000000E+02
    0.453618000000E+06 0.400000000000E+01 0.000000000000E+00 0.000000000000E+00
14 08  2 29  8  0  0.0-0.292715616524E-03 0.386535248253E-11 0.000000000000E+00
    0.113000000000E+03-0.260000000000E+02 0.390873424304E-08 0.122243627179E+01
   -0.135414302349E-05 0.367431214545E-02 0.429525971413E-05 0.515367137528E+04
    0.460800000000E+06-0.111758708954E-06-0.269639411897E+01 0.689178705216E-07
    0.989388750664E+00 0.306750000000E+03-0.210677350424E+01-0.798604693662E-08
    0.632169189527E-10 0.100000000000E+01 0.146800000000E+04 0.000000000000E+00
    0.200000000000E+01 0.000000000000E+00-0.884756445885E-08 0.113000000000E+03
    0.453600000000E+06 0.000000000000E+00 0.000000000000E+00 0.000000000000E+00
15 08  2 29  8  0  0.0-0.807517208159E-04-0.341060513165E-11 0.000000000000E+00
    0.630000000000E+02-0.115625000000E+02 0.455483258420E-08 0.247188859114E+01
   -0.631436705589E-06 0.793914659880E-03 0.413134694099E-05 0.515362952232E+04
    0.460800000000E+06 0.130385160446E-07-0.273469343132E+01-0.670552253723E-07
    0.957861281716E+00 0.297843750000E+03-0.155825673284E+01-0.819712715753E-08
    0.389301930274E-10 0.100000000000E+01 0.146800000000E+04 0.000000000000E+00
    0.200000000000E+01 0.000000000000E+00-0.977888703346E-08 0.630000000000E+02
    0.453600000000E+06 0.000000000000E+00 0.000000000000E+00 0.000000000000E+00
